{
  "norad_id": 67845,
  "name": "STARLINK-36606",
  "history": [
    {
      "epoch": "2026-03-28T22:00:01.999584",
      "apogee_km": 483.83332141844403,
      "perigee_km": 482.25291718976314,
      "latitude_deg": 23.679304147742357,
      "longitude_deg": -27.497778240125626,
      "semi_major_axis_km": 6861.180119304104,
      "eccentricity": 0.00011517,
      "inclination_deg": 43.0004,
      "raan_deg": 158.2078,
      "arg_perigee_deg": 294.9385,
      "mean_anomaly_deg": 199.9797,
      "mean_motion_rev_day": 15.27581996
    },
    {
      "epoch": "2026-03-29T04:00:01.999584",
      "apogee_km": 483.73718688896224,
      "perigee_km": 482.4061124109303,
      "latitude_deg": -42.64152595994163,
      "longitude_deg": -3.4977782401256263,
      "semi_major_axis_km": 6861.208649649946,
      "eccentricity": 9.7e-05,
      "inclination_deg": 43.0,
      "raan_deg": 156.7966,
      "arg_perigee_deg": 292.3326,
      "mean_anomaly_deg": 139.0213,
      "mean_motion_rev_day": 15.27572468
    }
  ]
}